[
    {
        "Altitude(m)": 611965.2122114757,
        "Argument of Periapsis(deg)": 0.0,
        "Eccentricity": 0.0,
        "Inclination(deg)": 60.0,
        "Latitude(deg)": 59.14024297030926,
        "Longitude(deg)": 168.96997109320657,
        "Mean Anomaly(deg)": 81.81819999999999,
        "RAAN(deg)": 195.00000000000003,
        "Satellite Name": "Test1 863",
        "Satellite Number": 863,
        "Semi-Major Axis(m)": 6980739.136638005,
        "Time(s)": 0
    },
    {
        "Altitude(m)": 611995.8370413135,
        "Argument of Periapsis(deg)": 0.00010418945913296404,
        "Eccentricity": 0.0,
        "Inclination(deg)": 60.0,
        "Latitude(deg)": 59.283341121466414,
        "Longitude(deg)": 170.10333681592158,
        "Mean Anomaly(deg)": 82.43830614546184,
        "RAAN(deg)": 194.99957995086024,
        "Satellite Name": "Test1 863",
        "Satellite Number": 863,
        "Semi-Major Axis(m)": 6980739.136638005,
        "Time(s)": 10
    },
    {
        "Altitude(m)": 612024.1209804317,
        "Argument of Periapsis(deg)": 0.0002083789182659281,
        "Eccentricity": 0.0,
        "Inclination(deg)": 60.0,
        "Latitude(deg)": 59.415757177896175,
        "Longitude(deg)": 171.24622598431455,
        "Mean Anomaly(deg)": 83.05841229092367,
        "RAAN(deg)": 194.99915990172053,
        "Satellite Name": "Test1 863",
        "Satellite Number": 863,
        "Semi-Major Axis(m)": 6980739.136638005,
        "Time(s)": 20
    },
    {
        "Altitude(m)": 612050.0478102921,
        "Argument of Periapsis(deg)": 0.00031256837739889213,
        "Eccentricity": 0.0,
        "Inclination(deg)": 60.0,
        "Latitude(deg)": 59.53735171602089,
        "Longitude(deg)": 172.3980105820146,
        "Mean Anomaly(deg)": 83.67851843638552,
        "RAAN(deg)": 194.99873985258077,
        "Satellite Name": "Test1 863",
        "Satellite Number": 863,
        "Semi-Major Axis(m)": 6980739.136638005,
        "Time(s)": 30
    },
    {
        "Altitude(m)": 612073.6026726124,
        "Argument of Periapsis(deg)": 0.0004167578365318562,
        "Eccentricity": 0.0,
        "Inclination(deg)": 60.0,
        "Latitude(deg)": 59.64799456870889,
        "Longitude(deg)": 173.5580269772482,
        "Mean Anomaly(deg)": 84.29862458184735,
        "RAAN(deg)": 194.99831980344103,
        "Satellite Name": "Test1 863",
        "Satellite Number": 863,
        "Semi-Major Axis(m)": 6980739.136638005,
        "Time(s)": 40
    },
    {
        "Altitude(m)": 612094.7720763653,
        "Argument of Periapsis(deg)": 0.0005209472956648203,
        "Eccentricity": 0.0,
        "Inclination(deg)": 60.0,
        "Latitude(deg)": 59.747565478415936,
        "Longitude(deg)": 174.7255767818519,
        "Mean Anomaly(deg)": 84.91873072730914,
        "RAAN(deg)": 194.99789975430127,
        "Satellite Name": "Test1 863",
        "Satellite Number": 863,
        "Semi-Major Axis(m)": 6980739.136638005,
        "Time(s)": 50
    },
    {
        "Altitude(m)": 612113.5439041429,
        "Argument of Periapsis(deg)": 0.0006251367547977843,
        "Eccentricity": 0.0,
        "Inclination(deg)": 60.0,
        "Latitude(deg)": 59.83595471675858,
        "Longitude(deg)": 175.89992955608525,
        "Mean Anomaly(deg)": 85.53883687277097,
        "RAAN(deg)": 194.99747970516157,
        "Satellite Name": "Test1 863",
        "Satellite Number": 863,
        "Semi-Major Axis(m)": 6980739.136638005,
        "Time(s)": 60
    },
    {
        "Altitude(m)": 612129.9074178572,
        "Argument of Periapsis(deg)": 0.0007293262139307483,
        "Eccentricity": 0.0,
        "Inclination(deg)": 60.0,
        "Latitude(deg)": 59.91306366345956,
        "Longitude(deg)": 177.0803258358119,
        "Mean Anomaly(deg)": 86.15894301823282,
        "RAAN(deg)": 194.9970596560218,
        "Satellite Name": "Test1 863",
        "Satellite Number": 863,
        "Semi-Major Axis(m)": 6980739.136638005,
        "Time(s)": 70
    },
    {
        "Altitude(m)": 612143.8532638107,
        "Argument of Periapsis(deg)": 0.0008335156730637124,
        "Eccentricity": 0.0,
        "Inclination(deg)": 60.0,
        "Latitude(deg)": 59.978805337841465,
        "Longitude(deg)": 178.26597895302322,
        "Mean Anomaly(deg)": 86.77904916369465,
        "RAAN(deg)": 194.99663960688207,
        "Satellite Name": "Test1 863",
        "Satellite Number": 863,
        "Semi-Major Axis(m)": 6980739.136638005,
        "Time(s)": 80
    },
    {
        "Altitude(m)": 612155.3734770985,
        "Argument of Periapsis(deg)": 0.0009377051321966765,
        "Eccentricity": 0.0,
        "Inclination(deg)": 60.0,
        "Latitude(deg)": 60.03310487639967,
        "Longitude(deg)": 179.45607865362476,
        "Mean Anomaly(deg)": 87.39915530915646,
        "RAAN(deg)": 194.9962195577423,
        "Satellite Name": "Test1 863",
        "Satellite Number": 863,
        "Semi-Major Axis(m)": 6980739.136638005,
        "Time(s)": 90
    },
    {
        "Altitude(m)": 612164.4614853547,
        "Argument of Periapsis(deg)": 0.0010418945913296407,
        "Eccentricity": 0.0,
        "Inclination(deg)": 60.0,
        "Latitude(deg)": 60.07589995048736,
        "Longitude(deg)": -179.3502050276885,
        "Mean Anomaly(deg)": 88.01926145461829,
        "RAAN(deg)": 194.9957995086026,
        "Satellite Name": "Test1 863",
        "Satellite Number": 863,
        "Semi-Major Axis(m)": 6980739.136638005,
        "Time(s)": 100
    },
    {
        "Altitude(m)": 612171.1121118475,
        "Argument of Periapsis(deg)": 0.0011460840504626045,
        "Eccentricity": 0.0,
        "Inclination(deg)": 60.0,
        "Latitude(deg)": 60.10714111877483,
        "Longitude(deg)": -178.1537191807505,
        "Mean Anomaly(deg)": 88.63936760008013,
        "RAAN(deg)": 194.99537945946284,
        "Satellite Name": "Test1 863",
        "Satellite Number": 863,
        "Semi-Major Axis(m)": 6980739.136638005,
        "Time(s)": 110
    },
    {
        "Altitude(m)": 612175.3215779201,
        "Argument of Periapsis(deg)": 0.0012502735095955685,
        "Eccentricity": 0.0,
        "Inclination(deg)": 60.0,
        "Latitude(deg)": 60.126792109881805,
        "Longitude(deg)": -176.95532373267432,
        "Mean Anomaly(deg)": 89.25947374554197,
        "RAAN(deg)": 194.9949594103231,
        "Satellite Name": "Test1 863",
        "Satellite Number": 863,
        "Semi-Major Axis(m)": 6980739.136638005,
        "Time(s)": 120
    },
    {
        "Altitude(m)": 612177.0875047576,
        "Argument of Periapsis(deg)": 0.0013544629687285324,
        "Eccentricity": 0.0,
        "Inclination(deg)": 60.0,
        "Latitude(deg)": 60.13483003144505,
        "Longitude(deg)": -175.75588701380948,
        "Mean Anomaly(deg)": 89.87957989100381,
        "RAAN(deg)": 194.99453936118334,
        "Satellite Name": "Test1 863",
        "Satellite Number": 863,
        "Semi-Major Axis(m)": 6980739.136638005,
        "Time(s)": 130
    },
    {
        "Altitude(m)": 612176.4089145138,
        "Argument of Periapsis(deg)": 0.0014586524278614966,
        "Eccentricity": 0.0,
        "Inclination(deg)": 60.0,
        "Latitude(deg)": 60.13124550282348,
        "Longitude(deg)": -174.5562827337874,
        "Mean Anomaly(deg)": 90.49968603646565,
        "RAAN(deg)": 194.99411931204364,
        "Satellite Name": "Test1 863",
        "Satellite Number": 863,
        "Semi-Major Axis(m)": 6980739.136638005,
        "Time(s)": 140
    },
    {
        "Altitude(m)": 612173.2862307628,
        "Argument of Periapsis(deg)": 0.0015628418869944607,
        "Eccentricity": 0.0,
        "Inclination(deg)": 60.0,
        "Latitude(deg)": 60.11604270964405,
        "Longitude(deg)": -173.35738538811876,
        "Mean Anomaly(deg)": 91.11979218192745,
        "RAAN(deg)": 194.99369926290387,
        "Satellite Name": "Test1 863",
        "Satellite Number": 863,
        "Semi-Major Axis(m)": 6980739.136638005,
        "Time(s)": 150
    },
    {
        "Altitude(m)": 612167.7212782948,
        "Argument of Periapsis(deg)": 0.0016670313461274247,
        "Eccentricity": 0.0,
        "Inclination(deg)": 60.0,
        "Latitude(deg)": 60.08923937945201,
        "Longitude(deg)": -172.1600656556494,
        "Mean Anomaly(deg)": 91.73989832738928,
        "RAAN(deg)": 194.99327921376414,
        "Satellite Name": "Test1 863",
        "Satellite Number": 863,
        "Semi-Major Axis(m)": 6980739.136638005,
        "Time(s)": 160
    },
    {
        "Altitude(m)": 612159.717282261,
        "Argument of Periapsis(deg)": 0.0017712208052603888,
        "Eccentricity": 0.0,
        "Inclination(deg)": 60.0,
        "Latitude(deg)": 60.050866678798165,
        "Longitude(deg)": -170.96518734737987,
        "Mean Anomaly(deg)": 92.36000447285112,
        "RAAN(deg)": 194.99285916462438,
        "Satellite Name": "Test1 863",
        "Satellite Number": 863,
        "Semi-Major Axis(m)": 6980739.136638005,
        "Time(s)": 170
    },
    {
        "Altitude(m)": 612149.2788666448,
        "Argument of Periapsis(deg)": 0.001875410264393353,
        "Eccentricity": 0.0,
        "Inclination(deg)": 60.0,
        "Latitude(deg)": 60.00096903314983,
        "Longitude(deg)": -169.77360292769913,
        "Mean Anomaly(deg)": 92.98011061831295,
        "RAAN(deg)": 194.99243911548467,
        "Satellite Name": "Test1 863",
        "Satellite Number": 863,
        "Semi-Major Axis(m)": 6980739.136638005,
        "Time(s)": 180
    },
    {
        "Altitude(m)": 612136.4120520775,
        "Argument of Periapsis(deg)": 0.0019795997235263173,
        "Eccentricity": 0.0,
        "Inclination(deg)": 60.0,
        "Latitude(deg)": 59.93960387204878,
        "Longitude(deg)": -168.5861491658704,
        "Mean Anomaly(deg)": 93.60021676377475,
        "RAAN(deg)": 194.9920190663449,
        "Satellite Name": "Test1 863",
        "Satellite Number": 863,
        "Semi-Major Axis(m)": 6980739.136638005,
        "Time(s)": 190
    }
]